ONEWEB-0207             
1 48242U 21031AJ  26006.27566047 -.00000125  00000+0 -37147-3 0  9992
2 48242  87.9023 321.9532 0001799  87.4468 272.6867 13.14504629227025
ONEWEB-0208             
1 48243U 21031AK  26006.25743827  .00000128  00000+0  31057-3 0  9999
2 48243  87.9017 321.9703 0001421  80.8900 279.2391 13.14502914227030
ONEWEB-0200             
1 48244U 21031AL  26006.29708016 -.00000033  00000+0 -12481-3 0  9992
2 48244  87.9017 321.9518 0001629  81.4445 278.6869 13.14503755226964
ONEWEB-0217             
1 48245U 21031AM  26006.31293336  .00000231  00000+0  58901-3 0  9995
2 48245  87.9027 321.9449 0001414  77.3808 282.7480 13.14502821226911
ONEWEB-0211             
1 48767U 21045A   26006.26540508  .00000028  00000+0  41258-4 0  9991
2 48767  87.9018 291.4302 0001317  63.8222 296.3044 13.16138571223149
ONEWEB-0223             
1 48768U 21045B   26006.26721640 -.00000046  00000+0 -15724-3 0  9990
2 48768  87.9017 291.4984 0001538  58.0077 302.1203 13.15548451223115
ONEWEB-0230             
1 48769U 21045C   26006.31475668  .00003717  00000+0  98373-2 0  9999
2 48769  87.9007 291.5172 0002180  76.5328 283.6046 13.15530753223386
ONEWEB-0237             
1 48770U 21045D   26006.30366145  .00000172  00000+0  42416-3 0  9999
2 48770  87.9009 291.5202 0001666  64.3070 295.8233 13.15548786223109
